{
  "type": "FeatureCollection",
  "features": [
    {
      "type": "Feature",
      "properties": {
        "norad_id": 48859,
        "name": "GPS BIII-5  (PRN 11)",
        "group": "gps-ops",
        "lat": -55.19823740934343,
        "lon": -107.21873812033459,
        "alt_km": 20137.25319788077,
        "timestamp": "2025-12-20T09:36:01.904322+00:00",
        "meta_object_name": "GPS BIII-5  (PRN 11)",
        "meta_object_id": "2021-054A",
        "meta_epoch": "2025-12-08T04:14:32.423424",
        "meta_mean_motion": 2.00553627,
        "meta_eccentricity": 0.0024678,
        "meta_inclination": 55.2581,
        "meta_ra_of_asc_node": 340.1367,
        "meta_arg_of_pericenter": 233.3993,
        "meta_mean_anomaly": 212.8594,
        "meta_ephemeris_type": 0,
        "meta_classification_type": "U",
        "meta_norad_cat_id": 48859,
        "meta_element_set_no": 999,
        "meta_rev_at_epoch": 3292,
        "meta_bstar": 0,
        "meta_mean_motion_dot": -8.6e-07,
        "meta_mean_motion_ddot": 0,
        "tle_line1": "1 48859U 21054A   25342.17676416 -.00000086  00000+0  00000+0 0  9993",
        "tle_line2": "2 48859  55.2581 340.1367 0024678 233.3993 212.8594  2.00553627 32922"
      },
      "geometry": {
        "type": "Point",
        "coordinates": [
          -107.21873812033459,
          -55.19823740934343
        ]
      }
    },
    {
      "type": "Feature",
      "properties": {
        "norad_id": 55268,
        "name": "GPS BIII-6  (PRN 28)",
        "group": "gps-ops",
        "lat": -36.08665644327302,
        "lon": 124.94692450823021,
        "alt_km": 20180.103347570395,
        "timestamp": "2025-12-20T09:36:01.904333+00:00",
        "meta_object_name": "GPS BIII-6  (PRN 28)",
        "meta_object_id": "2023-009A",
        "meta_epoch": "2025-12-17T11:51:56.668896",
        "meta_mean_motion": 2.00555417,
        "meta_eccentricity": 0.00037978,
        "meta_inclination": 55.1064,
        "meta_ra_of_asc_node": 155.6587,
        "meta_arg_of_pericenter": 358.2196,
        "meta_mean_anomaly": 17.9493,
        "meta_ephemeris_type": 0,
        "meta_classification_type": "U",
        "meta_norad_cat_id": 55268,
        "meta_element_set_no": 999,
        "meta_rev_at_epoch": 2160,
        "meta_bstar": 0,
        "meta_mean_motion_dot": 7.7e-07,
        "meta_mean_motion_ddot": 0,
        "tle_line1": "1 55268U 23009A   25351.49440589  .00000077  00000+0  00000+0 0  9991",
        "tle_line2": "2 55268  55.1064 155.6587 0003797 358.2196  17.9493  2.00555417 21607"
      },
      "geometry": {
        "type": "Point",
        "coordinates": [
          124.94692450823021,
          -36.08665644327302
        ]
      }
    },
    {
      "type": "Feature",
      "properties": {
        "norad_id": 62339,
        "name": "GPS BIII-7  (PRN 01)",
        "group": "gps-ops",
        "lat": 25.63833617122974,
        "lon": 1.1274674408486822,
        "alt_km": 20155.77190407773,
        "timestamp": "2025-12-20T09:36:01.904345+00:00",
        "meta_object_name": "GPS BIII-7  (PRN 01)",
        "meta_object_id": "2024-242A",
        "meta_epoch": "2025-12-18T08:46:28.895808",
        "meta_mean_motion": 2.00568182,
        "meta_eccentricity": 0.0012509,
        "meta_inclination": 54.922,
        "meta_ra_of_asc_node": 341.5124,
        "meta_arg_of_pericenter": 345.6877,
        "meta_mean_anomaly": 17.1618,
        "meta_ephemeris_type": 0,
        "meta_classification_type": "U",
        "meta_norad_cat_id": 62339,
        "meta_element_set_no": 999,
        "meta_rev_at_epoch": 763,
        "meta_bstar": 0,
        "meta_mean_motion_dot": -8.5e-07,
        "meta_mean_motion_ddot": 0,
        "tle_line1": "1 62339U 24242A   25352.36561222 -.00000085  00000+0  00000+0 0  9993",
        "tle_line2": "2 62339  54.9220 341.5124 0012509 345.6877  17.1618  2.00568182  7636"
      },
      "geometry": {
        "type": "Point",
        "coordinates": [
          1.1274674408486822,
          25.63833617122974
        ]
      }
    },
    {
      "type": "Feature",
      "properties": {
        "norad_id": 64202,
        "name": "GPS BIII-8  (PRN 21)",
        "group": "gps-ops",
        "lat": -32.524643721759865,
        "lon": -115.24620068644285,
        "alt_km": 20186.27977199549,
        "timestamp": "2025-12-20T09:36:01.904357+00:00",
        "meta_object_name": "GPS BIII-8  (PRN 21)",
        "meta_object_id": "2025-116A",
        "meta_epoch": "2025-12-18T15:16:52.654656",
        "meta_mean_motion": 2.00558053,
        "meta_eccentricity": 0.00059082,
        "meta_inclination": 55.1097,
        "meta_ra_of_asc_node": 38.4029,
        "meta_arg_of_pericenter": 309.1838,
        "meta_mean_anomaly": 78.7026,
        "meta_ephemeris_type": 0,
        "meta_classification_type": "U",
        "meta_norad_cat_id": 64202,
        "meta_element_set_no": 999,
        "meta_rev_at_epoch": 425,
        "meta_bstar": 0,
        "meta_mean_motion_dot": -7e-07,
        "meta_mean_motion_ddot": 0,
        "tle_line1": "1 64202U 25116A   25352.63672054 -.00000070  00000+0  00000+0 0  9995",
        "tle_line2": "2 64202  55.1097  38.4029 0005908 309.1838  78.7026  2.00558053  4252"
      },
      "geometry": {
        "type": "Point",
        "coordinates": [
          -115.24620068644285,
          -32.524643721759865
        ]
      }
    }
  ]
}